EUTELSAT QUANTUM        
1 49056U 21069B   25352.85670001  .00000151  00000+0  00000+0 0  9991
2 49056   0.0162  23.3718 0003329 255.1495 165.3089  1.00271430 16127
EUTELSAT KONNECT VHTS   
1 53765U 22110A   25352.88447457  .00000042  00000+0  00000+0 0  9990
2 53765   0.0646 100.6620 0002290 142.8901 165.3364  1.00269710  5017
EUTELSAT HOTBIRD 13F    
1 54048U 22134A   25352.62788174  .00000112  00000+0  00000+0 0  9995
2 54048   0.0514 293.3957 0002252  71.3583 321.7634  1.00271613 11569
EUTELSAT HOTBIRD 13G    
1 54225U 22146A   25352.62788174  .00000112  00000+0  00000+0 0  9995
2 54225   0.0520 231.3900 0001905 302.2873 152.8370  1.00271439  5654
EUTELSAT 10B            
1 54259U 22157A   25352.87891943  .00000094  00000+0  00000+0 0  9999
2 54259   0.0625  98.3066 0000779  18.3202 297.5103  1.00274831 11219
EUTELSAT 36D            
1 59346U 24059A   25352.86225464  .00000000  00000+0  00000+0 0  9999
2 59346   0.0250  15.8744 0000444 357.4402  60.6523  1.00271288  6335
